{
  "type": "FeatureCollection",
  "features": [
    {
      "type": "Feature",
      "properties": {
        "norad_id": 46451,
        "name": "FENGYUN 1C DEB",
        "group": "fengyun-1c-debris",
        "lat": 29.54477173568722,
        "lon": 6.050629148958584,
        "alt_km": 917.1791556767594,
        "timestamp": "2025-12-17T21:39:45.975872+00:00",
        "meta_object_name": "FENGYUN 1C DEB",
        "meta_object_id": "1999-025EZG",
        "meta_epoch": "2025-12-16T00:01:06.361248",
        "meta_mean_motion": 14.20424593,
        "meta_eccentricity": 0.01712894,
        "meta_inclination": 98.1533,
        "meta_ra_of_asc_node": 8.9565,
        "meta_arg_of_pericenter": 176.3929,
        "meta_mean_anomaly": 215.1929,
        "meta_ephemeris_type": 0,
        "meta_classification_type": "U",
        "meta_norad_cat_id": 46451,
        "meta_element_set_no": 999,
        "meta_rev_at_epoch": 57053,
        "meta_bstar": 0.0018698463,
        "meta_mean_motion_dot": 4.61e-05,
        "meta_mean_motion_ddot": 0,
        "tle_line1": "1 46451U 99025EZG 25350.00076807  .00004610  00000+0  18698-2 0  9992",
        "tle_line2": "2 46451  98.1533   8.9565 0171289 176.3929 215.1929 14.20424593570532"
      },
      "geometry": {
        "type": "Point",
        "coordinates": [
          6.050629148958584,
          29.54477173568722
        ]
      }
    },
    {
      "type": "Feature",
      "properties": {
        "norad_id": 46468,
        "name": "FENGYUN 1C DEB",
        "group": "fengyun-1c-debris",
        "lat": -8.323423480801607,
        "lon": 81.04958842666804,
        "alt_km": 836.8761559560535,
        "timestamp": "2025-12-17T21:39:45.975881+00:00",
        "meta_object_name": "FENGYUN 1C DEB",
        "meta_object_id": "1999-025EZK",
        "meta_epoch": "2025-12-13T04:55:06.657888",
        "meta_mean_motion": 14.24733341,
        "meta_eccentricity": 0.00460719,
        "meta_inclination": 98.8823,
        "meta_ra_of_asc_node": 74.9879,
        "meta_arg_of_pericenter": 229.1827,
        "meta_mean_anomaly": 160.5992,
        "meta_ephemeris_type": 0,
        "meta_classification_type": "U",
        "meta_norad_cat_id": 46468,
        "meta_element_set_no": 999,
        "meta_rev_at_epoch": 73823,
        "meta_bstar": 0.0028688303,
        "meta_mean_motion_dot": 6.714e-05,
        "meta_mean_motion_ddot": 0,
        "tle_line1": "1 46468U 99025EZK 25347.20493817  .00006714  00000+0  28688-2 0  9999",
        "tle_line2": "2 46468  98.8823  74.9879 0046071 229.1827 160.5992 14.24733341738238"
      },
      "geometry": {
        "type": "Point",
        "coordinates": [
          81.04958842666804,
          -8.323423480801607
        ]
      }
    },
    {
      "type": "Feature",
      "properties": {
        "norad_id": 46986,
        "name": "FENGYUN 1C DEB",
        "group": "fengyun-1c-debris",
        "lat": -45.6578819614399,
        "lon": -173.00909035833635,
        "alt_km": 676.8301812716236,
        "timestamp": "2025-12-17T21:39:45.975890+00:00",
        "meta_object_name": "FENGYUN 1C DEB",
        "meta_object_id": "1999-025EZL",
        "meta_epoch": "2025-12-16T08:06:57.053376",
        "meta_mean_motion": 14.4719565,
        "meta_eccentricity": 0.01047572,
        "meta_inclination": 98.2376,
        "meta_ra_of_asc_node": 13.9926,
        "meta_arg_of_pericenter": 200.9287,
        "meta_mean_anomaly": 158.7603,
        "meta_ephemeris_type": 0,
        "meta_classification_type": "U",
        "meta_norad_cat_id": 46986,
        "meta_element_set_no": 999,
        "meta_rev_at_epoch": 63452,
        "meta_bstar": 0.00034847987,
        "meta_mean_motion_dot": 1.316e-05,
        "meta_mean_motion_ddot": 0,
        "tle_line1": "1 46986U 99025EZL 25350.33816034  .00001316  00000+0  34848-3 0  9991",
        "tle_line2": "2 46986  98.2376  13.9926 0104757 200.9287 158.7603 14.47195650634524"
      },
      "geometry": {
        "type": "Point",
        "coordinates": [
          -173.00909035833635,
          -45.6578819614399
        ]
      }
    },
    {
      "type": "Feature",
      "properties": {
        "norad_id": 46989,
        "name": "FENGYUN 1C DEB",
        "group": "fengyun-1c-debris",
        "lat": 43.545284162523465,
        "lon": -17.132155931870955,
        "alt_km": 1137.9731893250728,
        "timestamp": "2025-12-17T21:39:45.975899+00:00",
        "meta_object_name": "FENGYUN 1C DEB",
        "meta_object_id": "1999-025EZP",
        "meta_epoch": "2025-12-16T05:50:42.467712",
        "meta_mean_motion": 13.79351889,
        "meta_eccentricity": 0.0241495,
        "meta_inclination": 99.5079,
        "meta_ra_of_asc_node": 152.0361,
        "meta_arg_of_pericenter": 327.932,
        "meta_mean_anomaly": 213.2299,
        "meta_ephemeris_type": 0,
        "meta_classification_type": "U",
        "meta_norad_cat_id": 46989,
        "meta_element_set_no": 999,
        "meta_rev_at_epoch": 71090,
        "meta_bstar": 0.0034367079,
        "meta_mean_motion_dot": 4.346e-05,
        "meta_mean_motion_ddot": 0,
        "tle_line1": "1 46989U 99025EZP 25350.24354708  .00004346  00000+0  34367-2 0  9990",
        "tle_line2": "2 46989  99.5079 152.0361 0241495 327.9320 213.2299 13.79351889710905"
      },
      "geometry": {
        "type": "Point",
        "coordinates": [
          -17.132155931870955,
          43.545284162523465
        ]
      }
    },
    {
      "type": "Feature",
      "properties": {
        "norad_id": 46990,
        "name": "FENGYUN 1C DEB",
        "group": "fengyun-1c-debris",
        "lat": 5.693587058672863,
        "lon": -165.1206956286268,
        "alt_km": 611.5267239416917,
        "timestamp": "2025-12-17T21:39:45.975908+00:00",
        "meta_object_name": "FENGYUN 1C DEB",
        "meta_object_id": "1999-025EZQ",
        "meta_epoch": "2025-12-14T09:50:58.179840",
        "meta_mean_motion": 14.23869634,
        "meta_eccentricity": 0.03581836,
        "meta_inclination": 98.2322,
        "meta_ra_of_asc_node": 192.4277,
        "meta_arg_of_pericenter": 55.4999,
        "meta_mean_anomaly": 61.9058,
        "meta_ephemeris_type": 0,
        "meta_classification_type": "U",
        "meta_norad_cat_id": 46990,
        "meta_element_set_no": 999,
        "meta_rev_at_epoch": 8553,
        "meta_bstar": 0.002161109,
        "meta_mean_motion_dot": 9.626e-05,
        "meta_mean_motion_ddot": 0,
        "tle_line1": "1 46990U 99025EZQ 25348.41039560  .00009626  00000+0  21611-2 0  9998",
        "tle_line2": "2 46990  98.2322 192.4277 0358183  55.4999  61.9058 14.23869634 85533"
      },
      "geometry": {
        "type": "Point",
        "coordinates": [
          -165.1206956286268,
          5.693587058672863
        ]
      }
    },
    {
      "type": "Feature",
      "properties": {
        "norad_id": 46992,
        "name": "FENGYUN 1C DEB",
        "group": "fengyun-1c-debris",
        "lat": 2.6398331551851584,
        "lon": -21.889954171774516,
        "alt_km": 935.9458693520728,
        "timestamp": "2025-12-17T21:39:45.975917+00:00",
        "meta_object_name": "FENGYUN 1C DEB",
        "meta_object_id": "1999-025EZS",
        "meta_epoch": "2025-12-13T18:12:56.949408",
        "meta_mean_motion": 14.00699481,
        "meta_eccentricity": 0.00721834,
        "meta_inclination": 98.8985,
        "meta_ra_of_asc_node": 334.4891,
        "meta_arg_of_pericenter": 157.8001,
        "meta_mean_anomaly": 202.6317,
        "meta_ephemeris_type": 0,
        "meta_classification_type": "U",
        "meta_norad_cat_id": 46992,
        "meta_element_set_no": 999,
        "meta_rev_at_epoch": 60971,
        "meta_bstar": 0.00055491814,
        "meta_mean_motion_dot": 8.03e-06,
        "meta_mean_motion_ddot": 0,
        "tle_line1": "1 46992U 99025EZS 25347.75899247  .00000803  00000+0  55492-3 0  9995",
        "tle_line2": "2 46992  98.8985 334.4891 0072183 157.8001 202.6317 14.00699481609710"
      },
      "geometry": {
        "type": "Point",
        "coordinates": [
          -21.889954171774516,
          2.6398331551851584
        ]
      }
    },
    {
      "type": "Feature",
      "properties": {
        "norad_id": 46993,
        "name": "FENGYUN 1C DEB",
        "group": "fengyun-1c-debris",
        "lat": -16.04650707507632,
        "lon": 112.40546459586055,
        "alt_km": 901.5126171760949,
        "timestamp": "2025-12-17T21:39:45.975926+00:00",
        "meta_object_name": "FENGYUN 1C DEB",
        "meta_object_id": "1999-025EZT",
        "meta_epoch": "2025-12-17T03:04:10.279200",
        "meta_mean_motion": 13.69152853,
        "meta_eccentricity": 0.02625272,
        "meta_inclination": 98.7234,
        "meta_ra_of_asc_node": 109.1722,
        "meta_arg_of_pericenter": 287.7388,
        "meta_mean_anomaly": 197.1064,
        "meta_ephemeris_type": 0,
        "meta_classification_type": "U",
        "meta_norad_cat_id": 46993,
        "meta_element_set_no": 999,
        "meta_rev_at_epoch": 60317,
        "meta_bstar": 0.00043589956,
        "meta_mean_motion_dot": 4.4e-06,
        "meta_mean_motion_ddot": 0,
        "tle_line1": "1 46993U 99025EZT 25351.12789675  .00000440  00000+0  43590-3 0  9998",
        "tle_line2": "2 46993  98.7234 109.1722 0262527 287.7388 197.1064 13.69152853603173"
      },
      "geometry": {
        "type": "Point",
        "coordinates": [
          112.40546459586055,
          -16.04650707507632
        ]
      }
    }
  ]
}